{"type": "FeatureCollection", "features": [ {"type": "Feature", "properties": {"norad_id": 28659, "name": "DIRECTV 8", "group": "intelsat", "lat": -0.02341480749832465, "lon": -115.04816316077554, "alt_km": 35773.36254758346, "timestamp": "2025-12-10T18:56:59.729482+00:00", "meta": {"OBJECT_NAME": "DIRECTV 8", "OBJECT_ID": "2005-019A", "EPOCH": "2025-12-10T07:31:28.465824", "MEAN_MOTION": 1.00272201, "ECCENTRICITY": 0.0003149, "INCLINATION": 0.0136, "RA_OF_ASC_NODE": 25.1148, "ARG_OF_PERICENTER": 239.1282, "MEAN_ANOMALY": 168.8738, "EPHEMERIS_TYPE": 0, "CLASSIFICATION_TYPE": "U", "NORAD_CAT_ID": 28659, "ELEMENT_SET_NO": 999, "REV_AT_EPOCH": 7517, "BSTAR": 0, "MEAN_MOTION_DOT": 5e-08, "MEAN_MOTION_DDOT": 0}, "tle": {"line1": "1 28659U 05019A   25344.31352391  .00000005  00000+0  00000+0 0  9993", "line2": "2 28659   0.0136  25.1148 0003149 239.1282 168.8738  1.00272201 75173"}}, "geometry": {"type": "Point", "coordinates": [-115.04816316077554, -0.02341480749832465]}}, {"type": "Feature", "properties": {"norad_id": 28702, "name": "GALAXY 28 (G-28)", "group": "intelsat", "lat": -0.6997283752303262, "lon": -84.68622063527724, "alt_km": 35775.31275226436, "timestamp": "2025-12-10T18:56:59.729494+00:00", "meta": {"OBJECT_NAME": "GALAXY 28 (G-28)", "OBJECT_ID": "2005-022A", "EPOCH": "2025-12-10T05:31:38.713152", "MEAN_MOTION": 1.00270969, "ECCENTRICITY": 0.0002699, "INCLINATION": 2.8122, "RA_OF_ASC_NODE": 81.3111, "ARG_OF_PERICENTER": 180.857, "MEAN_ANOMALY": 171.2672, "EPHEMERIS_TYPE": 0, "CLASSIFICATION_TYPE": "U", "NORAD_CAT_ID": 28702, "ELEMENT_SET_NO": 999, "REV_AT_EPOCH": 5007, "BSTAR": 0, "MEAN_MOTION_DOT": -1.84e-06, "MEAN_MOTION_DDOT": 0}, "tle": {"line1": "1 28702U 05022A   25344.23030918 -.00000184  00000+0  00000+0 0  9994", "line2": "2 28702   2.8122  81.3111 0002699 180.8570 171.2672  1.00270969 50078"}}, "geometry": {"type": "Point", "coordinates": [-84.68622063527724, -0.6997283752303262]}}, {"type": "Feature", "properties": {"norad_id": 29236, "name": "GALAXY 16 (G-16)", "group": "intelsat", "lat": -0.011379148628710567, "lon": -94.9972222006479, "alt_km": 35774.446993668294, "timestamp": "2025-12-10T18:56:59.729505+00:00", "meta": {"OBJECT_NAME": "GALAXY 16 (G-16)", "OBJECT_ID": "2006-023A", "EPOCH": "2025-12-10T10:30:13.309920", "MEAN_MOTION": 1.00272213, "ECCENTRICITY": 0.0002769, "INCLINATION": 0.0363, "RA_OF_ASC_NODE": 149.7861, "ARG_OF_PERICENTER": 104.7073, "MEAN_ANOMALY": 243.4661, "EPHEMERIS_TYPE": 0, "CLASSIFICATION_TYPE": "U", "NORAD_CAT_ID": 29236, "ELEMENT_SET_NO": 999, "REV_AT_EPOCH": 7108, "BSTAR": 0, "MEAN_MOTION_DOT": -1.23e-06, "MEAN_MOTION_DDOT": 0}, "tle": {"line1": "1 29236U 06023A   25344.43765405 -.00000123  00000+0  00000+0 0  9990", "line2": "2 29236   0.0363 149.7861 0002769 104.7073 243.4661  1.00272213 71088"}}, "geometry": {"type": "Point", "coordinates": [-94.9972222006479, -0.011379148628710567]}}, {"type": "Feature", "properties": {"norad_id": 29494, "name": "DIRECTV 9S", "group": "intelsat", "lat": -0.0043181556903492775, "lon": -97.20471097382745, "alt_km": 35772.92410380773, "timestamp": "2025-12-10T18:56:59.729517+00:00", "meta": {"OBJECT_NAME": "DIRECTV 9S", "OBJECT_ID": "2006-043A", "EPOCH": "2025-12-10T07:31:02.481888", "MEAN_MOTION": 1.00271543, "ECCENTRICITY": 0.0003127, "INCLINATION": 1.9341, "RA_OF_ASC_NODE": 83.2342, "ARG_OF_PERICENTER": 178.8823, "MEAN_ANOMALY": 188.7211, "EPHEMERIS_TYPE": 0, "CLASSIFICATION_TYPE": "U", "NORAD_CAT_ID": 29494, "ELEMENT_SET_NO": 999, "REV_AT_EPOCH": 4949, "BSTAR": 0, "MEAN_MOTION_DOT": -1.1e-06, "MEAN_MOTION_DDOT": 0}, "tle": {"line1": "1 29494U 06043A   25344.31322317 -.00000110  00000+0  00000+0 0  9992", "line2": "2 29494   1.9341  83.2342 0003127 178.8823 188.7211  1.00271543 49497"}}, "geometry": {"type": "Point", "coordinates": [-97.20471097382745, -0.0043181556903492775]}}, {"type": "Feature", "properties": {"norad_id": 31307, "name": "GALAXY 17 (G-17)", "group": "intelsat", "lat": -0.736682494475121, "lon": -80.95645055934344, "alt_km": 35764.876113308885, "timestamp": "2025-12-10T18:56:59.729528+00:00", "meta": {"OBJECT_NAME": "GALAXY 17 (G-17)", "OBJECT_ID": "2007-016B", "EPOCH": "2025-12-10T05:31:38.713152", "MEAN_MOTION": 1.00272548, "ECCENTRICITY": 0.0006008, "INCLINATION": 2.4939, "RA_OF_ASC_NODE": 82.3112, "ARG_OF_PERICENTER": 162.8235, "MEAN_ANOMALY": 191.995, "EPHEMERIS_TYPE": 0, "CLASSIFICATION_TYPE": "U", "NORAD_CAT_ID": 31307, "ELEMENT_SET_NO": 999, "REV_AT_EPOCH": 6790, "BSTAR": 0, "MEAN_MOTION_DOT": -2.03e-06, "MEAN_MOTION_DDOT": 0}, "tle": {"line1": "1 31307U 07016B   25344.23030918 -.00000203  00000+0  00000+0 0  9996", "line2": "2 31307   2.4939  82.3112 0006008 162.8235 191.9950  1.00272548 67906"}}, "geometry": {"type": "Point", "coordinates": [-80.95645055934344, -0.736682494475121]}}, {"type": "Feature", "properties": {"norad_id": 31862, "name": "DIRECTV 10", "group": "intelsat", "lat": -0.0005559692324714287, "lon": -98.77376282790615, "alt_km": 35784.98395302351, "timestamp": "2025-12-10T18:56:59.729540+00:00", "meta": {"OBJECT_NAME": "DIRECTV 10", "OBJECT_ID": "2007-032A", "EPOCH": "2025-12-10T08:12:19.170720", "MEAN_MOTION": 1.00271553, "ECCENTRICITY": 3.85e-05, "INCLINATION": 0.0087, "RA_OF_ASC_NODE": 98.9872, "ARG_OF_PERICENTER": 118.0776, "MEAN_ANOMALY": 242.5518, "EPHEMERIS_TYPE": 0, "CLASSIFICATION_TYPE": "U", "NORAD_CAT_ID": 31862, "ELEMENT_SET_NO": 999, "REV_AT_EPOCH": 4370, "BSTAR": 0, "MEAN_MOTION_DOT": -9.9e-07, "MEAN_MOTION_DDOT": 0}, "tle": {"line1": "1 31862U 07032A   25344.34188855 -.00000099  00000+0  00000+0 0  9999", "line2": "2 31862   0.0087  98.9872 0000385 118.0776 242.5518  1.00271553 43701"}}, "geometry": {"type": "Point", "coordinates": [-98.77376282790615, -0.0005559692324714287]}}, {"type": "Feature", "properties": {"norad_id": 32253, "name": "INTELSAT 11 (IS-11)", "group": "intelsat", "lat": 1.1699080604189083, "lon": -121.71167901510245, "alt_km": 36094.34767719688, "timestamp": "2025-12-10T18:56:59.729551+00:00", "meta": {"OBJECT_NAME": "INTELSAT 11 (IS-11)", "OBJECT_ID": "2007-044B", "EPOCH": "2025-12-10T08:50:38.825088", "MEAN_MOTION": 0.99047863, "ECCENTRICITY": 0.0009039, "INCLINATION": 3.0743, "RA_OF_ASC_NODE": 81.0014, "ARG_OF_PERICENTER": 165.0456, "MEAN_ANOMALY": 202.0786, "EPHEMERIS_TYPE": 0, "CLASSIFICATION_TYPE": "U", "NORAD_CAT_ID": 32253, "ELEMENT_SET_NO": 999, "REV_AT_EPOCH": 6658, "BSTAR": 0, "MEAN_MOTION_DOT": 7.8e-07, "MEAN_MOTION_DDOT": 0}, "tle": {"line1": "1 32253U 07044B   25344.36850492  .00000078  00000+0  00000+0 0  9998", "line2": "2 32253   3.0743  81.0014 0009039 165.0456 202.0786  0.99047863 66582"}}, "geometry": {"type": "Point", "coordinates": [-121.71167901510245, 1.1699080604189083]}}, {"type": "Feature", "properties": {"norad_id": 32388, "name": "HORIZONS-2", "group": "intelsat", "lat": -0.9849754842968228, "lon": -69.77576073796853, "alt_km": 35766.747671411154, "timestamp": "2025-12-10T18:56:59.729562+00:00", "meta": {"OBJECT_NAME": "HORIZONS-2", "OBJECT_ID": "2007-063B", "EPOCH": "2025-12-10T04:15:38.659392", "MEAN_MOTION": 1.00270369, "ECCENTRICITY": 0.00049966, "INCLINATION": 2.1151, "RA_OF_ASC_NODE": 82.986, "ARG_OF_PERICENTER": 187.7367, "MEAN_ANOMALY": 158.5607, "EPHEMERIS_TYPE": 0, "CLASSIFICATION_TYPE": "U", "NORAD_CAT_ID": 32388, "ELEMENT_SET_NO": 999, "REV_AT_EPOCH": 6591, "BSTAR": 0, "MEAN_MOTION_DOT": -2.5e-06, "MEAN_MOTION_DDOT": 0}, "tle": {"line1": "1 32388U 07063B   25344.17753078 -.00000250  00000+0  00000+0 0  9992", "line2": "2 32388   2.1151  82.9860 0004996 187.7367 158.5607  1.00270369 65917"}}, "geometry": {"type": "Point", "coordinates": [-69.77576073796853, -0.9849754842968228]}}, {"type": "Feature", "properties": {"norad_id": 32729, "name": "DIRECTV 11", "group": "intelsat", "lat": 0.0003833521892964629, "lon": -95.18445508794386, "alt_km": 35785.911880930034, "timestamp": "2025-12-10T18:56:59.729574+00:00", "meta": {"OBJECT_NAME": "DIRECTV 11", "OBJECT_ID": "2008-013A", "EPOCH": "2025-12-10T10:29:59.968896", "MEAN_MOTION": 1.00271438, "ECCENTRICITY": 3.93e-05, "INCLINATION": 0.018, "RA_OF_ASC_NODE": 174.7385, "ARG_OF_PERICENTER": 9.6314, "MEAN_ANOMALY": 313.349, "EPHEMERIS_TYPE": 0, "CLASSIFICATION_TYPE": "U", "NORAD_CAT_ID": 32729, "ELEMENT_SET_NO": 999, "REV_AT_EPOCH": 4370, "BSTAR": 0, "MEAN_MOTION_DOT": -1.22e-06, "MEAN_MOTION_DDOT": 0}, "tle": {"line1": "1 32729U 08013A   25344.43749964 -.00000122  00000+0  00000+0 0  9993", "line2": "2 32729   0.0180 174.7385 0000393   9.6314 313.3490  1.00271438 43700"}}, "geometry": {"type": "Point", "coordinates": [-95.18445508794386, 0.0003833521892964629]}}, {"type": "Feature", "properties": {"norad_id": 32951, "name": "GALAXY 18 (G-18)", "group": "intelsat", "lat": -0.0307309740160379, "lon": -119.01088892110212, "alt_km": 35773.44987973115, "timestamp": "2025-12-10T18:56:59.729586+00:00", "meta": {"OBJECT_NAME": "GALAXY 18 (G-18)", "OBJECT_ID": "2008-024A", "EPOCH": "2025-12-10T07:53:45.617280", "MEAN_MOTION": 1.0027288, "ECCENTRICITY": 0.0003134, "INCLINATION": 0.0161, "RA_OF_ASC_NODE": 307.7167, "ARG_OF_PERICENTER": 315.2839, "MEAN_ANOMALY": 171.7407, "EPHEMERIS_TYPE": 0, "CLASSIFICATION_TYPE": "U", "NORAD_CAT_ID": 32951, "ELEMENT_SET_NO": 999, "REV_AT_EPOCH": 4395, "BSTAR": 0, "MEAN_MOTION_DOT": 2.9e-07, "MEAN_MOTION_DDOT": 0}, "tle": {"line1": "1 32951U 08024A   25344.32900020  .00000029  00000+0  00000+0 0  9997", "line2": "2 32951   0.0161 307.7167 0003134 315.2839 171.7407  1.00272880 43959"}}, "geometry": {"type": "Point", "coordinates": [-119.01088892110212, -0.0307309740160379]}}]}